start=new Date('2021-10-12T00:00:00.000Z').valueOf();
sats=[{"GP_ID":"186930071","MEAN_MOTION_DOT":"0.00006828","TLE_LINE1":"1 47576U 21009AE  21284.77558628  .00006828  00000-0  47665-3 0  9991","COUNTRY_CODE":"US","NORAD_CAT_ID":"47576","DECAY_DATE":null,"PERIAPSIS":"546.345","ARG_OF_PERICENTER":"109.7220","CENTER_NAME":"EARTH","INCLINATION":"53.0554","MEAN_ELEMENT_THEORY":"SGP4","RCS_SIZE":"LARGE","MEAN_ANOMALY":"250.3897","SEMIMAJOR_AXIS":"6925.307","REV_AT_EPOCH":"3842","OBJECT_NAME":"STARLINK-1978","OBJECT_TYPE":"PAYLOAD","REF_FRAME":"TEME","APOAPSIS":"547.998","TIME_SYSTEM":"UTC","TLE_LINE2":"2 47576  53.0554  28.8141 0001193 109.7220 250.3897 15.06413702 38422","ELEMENT_SET_NO":"999","PERIOD":"95.591","FILE":"3157563","MEAN_MOTION_DDOT":"0.0000000000000","MEAN_MOTION":"15.06413702","SITE":"AFETR","LAUNCH_DATE":"2021-02-04","ECCENTRICITY":"0.00011930","EPOCH":"2021-10-11T18:36:50.654592","RA_OF_ASC_NODE":"28.8141","OBJECT_ID":"2021-009AE","CLASSIFICATION_TYPE":"U","EPHEMERIS_TYPE":"0","BSTAR":"0.00047665000000"},{"RCS_SIZE":"LARGE","MEAN_ANOMALY":"258.9941","PERIAPSIS":"546.216","DECAY_DATE":null,"NORAD_CAT_ID":"47577","COUNTRY_CODE":"US","TLE_LINE1":"1 47577U 21009AF  21284.61754347 -.00000046  00000-0  15791-4 0  9994","MEAN_MOTION_DOT":"-0.00000046","GP_ID":"186928819","MEAN_ELEMENT_THEORY":"SGP4","CENTER_NAME":"EARTH","INCLINATION":"53.0573","ARG_OF_PERICENTER":"101.1210","FILE":"3157563","MEAN_MOTION_DDOT":"0.0000000000000","PERIOD":"95.592","ELEMENT_SET_NO":"999","TLE_LINE2":"2 47577  53.0573  44.5155 0001443 101.1210 258.9941 15.06399279 38197","TIME_SYSTEM":"UTC","APOAPSIS":"548.215","BSTAR":"0.00001579100000","EPHEMERIS_TYPE":"0","CLASSIFICATION_TYPE":"U","OBJECT_ID":"2021-009AF","RA_OF_ASC_NODE":"44.5155","ECCENTRICITY":"0.00014430","EPOCH":"2021-10-11T14:49:15.755808","LAUNCH_DATE":"2021-02-04","MEAN_MOTION":"15.06399279","SITE":"AFETR","OBJECT_NAME":"STARLINK-1979","REV_AT_EPOCH":"3819","SEMIMAJOR_AXIS":"6925.351","REF_FRAME":"TEME","OBJECT_TYPE":"PAYLOAD"},{"REF_FRAME":"TEME","OBJECT_TYPE":"PAYLOAD","SEMIMAJOR_AXIS":"6925.349","REV_AT_EPOCH":"3811","OBJECT_NAME":"STARLINK-1980","RA_OF_ASC_NODE":"49.5294","ECCENTRICITY":"0.00014320","EPOCH":"2021-10-11T14:40:38.464320","LAUNCH_DATE":"2021-02-04","SITE":"AFETR","MEAN_MOTION":"15.06399713","BSTAR":"0.00013256000000","EPHEMERIS_TYPE":"0","CLASSIFICATION_TYPE":"U","OBJECT_ID":"2021-009AG","TIME_SYSTEM":"UTC","APOAPSIS":"548.206","FILE":"3157068","MEAN_MOTION_DDOT":"0.0000000000000","ELEMENT_SET_NO":"999","PERIOD":"95.592","TLE_LINE2":"2 47578  53.0557  49.5294 0001432  96.5708 263.5444 15.06399713 38111","CENTER_NAME":"EARTH","INCLINATION":"53.0557","ARG_OF_PERICENTER":"96.5708","MEAN_ELEMENT_THEORY":"SGP4","TLE_LINE1":"1 47578U 21009AG  21284.61155630  .00001694  00000-0  13256-3 0  9997","MEAN_MOTION_DOT":"0.00001694","GP_ID":"186895366","PERIAPSIS":"546.223","DECAY_DATE":null,"NORAD_CAT_ID":"47578","COUNTRY_CODE":"US","MEAN_ANOMALY":"263.5444","RCS_SIZE":"LARGE"},{"MEAN_ELEMENT_THEORY":"SGP4","ARG_OF_PERICENTER":"97.1168","CENTER_NAME":"EARTH","INCLINATION":"53.0565","COUNTRY_CODE":"US","NORAD_CAT_ID":"47579","DECAY_DATE":null,"PERIAPSIS":"546.363","GP_ID":"186895617","MEAN_MOTION_DOT":"0.00002546","TLE_LINE1":"1 47579U 21009AH  21284.59405220  .00002546  00000-0  18974-3 0  9997","MEAN_ANOMALY":"262.9961","RCS_SIZE":"LARGE","OBJECT_TYPE":"PAYLOAD","REF_FRAME":"TEME","OBJECT_NAME":"STARLINK-1981","REV_AT_EPOCH":"3825","SEMIMAJOR_AXIS":"6925.354","OBJECT_ID":"2021-009AH","CLASSIFICATION_TYPE":"U","EPHEMERIS_TYPE":"0","BSTAR":"0.00018974000000","MEAN_MOTION":"15.06398367","SITE":"AFETR","LAUNCH_DATE":"2021-02-04","EPOCH":"2021-10-11T14:15:26.110080","ECCENTRICITY":"0.00012350","RA_OF_ASC_NODE":"39.6106","TLE_LINE2":"2 47579  53.0565  39.6106 0001235  97.1168 262.9961 15.06398367 38257","PERIOD":"95.592","ELEMENT_SET_NO":"999","FILE":"3157068","MEAN_MOTION_DDOT":"0.0000000000000","APOAPSIS":"548.074","TIME_SYSTEM":"UTC"},{"NORAD_CAT_ID":"47580","COUNTRY_CODE":"US","PERIAPSIS":"546.218","DECAY_DATE":null,"GP_ID":"186896350","TLE_LINE1":"1 47580U 21009AJ  21284.61524980 -.00000130  00000-0  10198-4 0  9996","MEAN_MOTION_DOT":"-0.00000130","MEAN_ELEMENT_THEORY":"SGP4","ARG_OF_PERICENTER":"97.0918","INCLINATION":"53.0549","CENTER_NAME":"EARTH","RCS_SIZE":"LARGE","MEAN_ANOMALY":"263.0238","OBJECT_NAME":"STARLINK-1982","REV_AT_EPOCH":"3811","SEMIMAJOR_AXIS":"6925.367","OBJECT_TYPE":"PAYLOAD","REF_FRAME":"TEME","ELEMENT_SET_NO":"999","PERIOD":"95.593","TLE_LINE2":"2 47580  53.0549  49.5116 0001464  97.0918 263.0238 15.06393897 38115","MEAN_MOTION_DDOT":"0.0000000000000","FILE":"3157068","APOAPSIS":"548.246","TIME_SYSTEM":"UTC","CLASSIFICATION_TYPE":"U","OBJECT_ID":"2021-009AJ","BSTAR":"0.00001019800000","EPHEMERIS_TYPE":"0","LAUNCH_DATE":"2021-02-04","SITE":"AFETR","MEAN_MOTION":"15.06393897","RA_OF_ASC_NODE":"49.5116","ECCENTRICITY":"0.00014640","EPOCH":"2021-10-11T14:45:57.582720"},{"REF_FRAME":"TEME","OBJECT_TYPE":"PAYLOAD","OBJECT_NAME":"STARLINK-1984","REV_AT_EPOCH":"3900","SEMIMAJOR_AXIS":"6925.276","BSTAR":"-0.00023508000000","EPHEMERIS_TYPE":"0","CLASSIFICATION_TYPE":"U","OBJECT_ID":"2021-009AK","RA_OF_ASC_NODE":"29.6028","EPOCH":"2021-10-11T14:16:45.339744","ECCENTRICITY":"0.00013160","LAUNCH_DATE":"2021-02-04","SITE":"AFETR","MEAN_MOTION":"15.06423623","FILE":"3157346","MEAN_MOTION_DDOT":"0.0000000000000","PERIOD":"95.591","ELEMENT_SET_NO":"999","TLE_LINE2":"2 47581  53.0573  29.6028 0001316 110.7565 249.3565 15.06423623 39001","TIME_SYSTEM":"UTC","APOAPSIS":"548.053","MEAN_ELEMENT_THEORY":"SGP4","CENTER_NAME":"EARTH","INCLINATION":"53.0573","ARG_OF_PERICENTER":"110.7565","PERIAPSIS":"546.230","DECAY_DATE":null,"NORAD_CAT_ID":"47581","COUNTRY_CODE":"US","TLE_LINE1":"1 47581U 21009AK  21284.59496921 -.00003783  00000-0 -23508-3 0  9993","MEAN_MOTION_DOT":"-0.00003783","GP_ID":"186903318","MEAN_ANOMALY":"249.3565","RCS_SIZE":"LARGE"},{"REF_FRAME":"TEME","OBJECT_TYPE":"PAYLOAD","REV_AT_EPOCH":"3812","SEMIMAJOR_AXIS":"6925.266","OBJECT_NAME":"STARLINK-1986","RA_OF_ASC_NODE":"49.3733","EPOCH":"2021-10-11T15:33:43.028352","ECCENTRICITY":"0.00011370","LAUNCH_DATE":"2021-02-04","MEAN_MOTION":"15.06426943","SITE":"AFETR","BSTAR":"-0.00038695000000","EPHEMERIS_TYPE":"0","CLASSIFICATION_TYPE":"U","OBJECT_ID":"2021-009AL","TIME_SYSTEM":"UTC","APOAPSIS":"547.918","MEAN_MOTION_DDOT":"0.0000000000000","FILE":"3157563","ELEMENT_SET_NO":"999","PERIOD":"95.590","TLE_LINE2":"2 47582  53.0572  49.3733 0001137  99.1619 260.9499 15.06426943 38129","CENTER_NAME":"EARTH","INCLINATION":"53.0572","ARG_OF_PERICENTER":"99.1619","MEAN_ELEMENT_THEORY":"SGP4","TLE_LINE1":"1 47582U 21009AL  21284.64841468 -.00006044  00000-0 -38695-3 0  9996","MEAN_MOTION_DOT":"-0.00006044","GP_ID":"186929070","PERIAPSIS":"546.344","DECAY_DATE":null,"NORAD_CAT_ID":"47582","COUNTRY_CODE":"US","MEAN_ANOMALY":"260.9499","RCS_SIZE":"LARGE"},{"OBJECT_NAME":"STARLINK-1987","REV_AT_EPOCH":"3812","SEMIMAJOR_AXIS":"6925.337","REF_FRAME":"TEME","OBJECT_TYPE":"PAYLOAD","MEAN_MOTION_DDOT":"0.0000000000000","FILE":"3157068","TLE_LINE2":"2 47583  53.0569  49.4778 0001431  96.5692 263.5460 15.06403843 38126","ELEMENT_SET_NO":"999","PERIOD":"95.592","TIME_SYSTEM":"UTC","APOAPSIS":"548.193","EPHEMERIS_TYPE":"0","BSTAR":"0.00012475000000","OBJECT_ID":"2021-009AM","CLASSIFICATION_TYPE":"U","EPOCH":"2021-10-11T15:01:52.537728","ECCENTRICITY":"0.00014310","RA_OF_ASC_NODE":"49.4778","SITE":"AFETR","MEAN_MOTION":"15.06403843","LAUNCH_DATE":"2021-02-04","DECAY_DATE":null,"PERIAPSIS":"546.211","COUNTRY_CODE":"US","NORAD_CAT_ID":"47583","MEAN_MOTION_DOT":"0.00001577","TLE_LINE1":"1 47583U 21009AM  21284.62630252  .00001577  00000-0  12475-3 0  9994","GP_ID":"186895118","MEAN_ELEMENT_THEORY":"SGP4","INCLINATION":"53.0569","CENTER_NAME":"EARTH","ARG_OF_PERICENTER":"96.5692","RCS_SIZE":"LARGE","MEAN_ANOMALY":"263.5460"},{"APOAPSIS":"384.938","TIME_SYSTEM":"UTC","ELEMENT_SET_NO":"999","PERIOD":"92.145","TLE_LINE2":"2 47584  53.0529 343.8352 0007739 297.4294  62.5932 15.62754104 39043","FILE":"3157563","MEAN_MOTION_DDOT":"0.0000000000000","LAUNCH_DATE":"2021-02-04","SITE":"AFETR","MEAN_MOTION":"15.62754104","RA_OF_ASC_NODE":"343.8352","ECCENTRICITY":"0.00077390","EPOCH":"2021-10-11T15:32:17.481120","CLASSIFICATION_TYPE":"U","OBJECT_ID":"2021-009AN","BSTAR":"0.00024797000000","EPHEMERIS_TYPE":"0","SEMIMAJOR_AXIS":"6757.843","REV_AT_EPOCH":"3904","OBJECT_NAME":"STARLINK-1988","OBJECT_TYPE":"PAYLOAD","REF_FRAME":"TEME","RCS_SIZE":"LARGE","MEAN_ANOMALY":"62.5932","GP_ID":"186930072","TLE_LINE1":"1 47584U 21009AN  21284.64742455  .00022258  00000-0  24797-3 0  9995","MEAN_MOTION_DOT":"0.00022258","NORAD_CAT_ID":"47584","COUNTRY_CODE":"US","PERIAPSIS":"374.478","DECAY_DATE":null,"ARG_OF_PERICENTER":"297.4294","CENTER_NAME":"EARTH","INCLINATION":"53.0529","MEAN_ELEMENT_THEORY":"SGP4"},{"MEAN_MOTION_DOT":"-0.00000077","TLE_LINE1":"1 47585U 21009AP  21284.65209291 -.00000077  00000-0  13798-4 0  9999","GP_ID":"186928820","DECAY_DATE":null,"PERIAPSIS":"543.635","COUNTRY_CODE":"US","NORAD_CAT_ID":"47585","INCLINATION":"53.0561","CENTER_NAME":"EARTH","ARG_OF_PERICENTER":"332.9498","MEAN_ELEMENT_THEORY":"SGP4","RCS_SIZE":"LARGE","MEAN_ANOMALY":"27.1221","REV_AT_EPOCH":"3812","SEMIMAJOR_AXIS":"6925.347","OBJECT_NAME":"STARLINK-1989","REF_FRAME":"TEME","OBJECT_TYPE":"PAYLOAD","TIME_SYSTEM":"UTC","APOAPSIS":"550.789","FILE":"3157563","MEAN_MOTION_DDOT":"0.0000000000000","TLE_LINE2":"2 47585  53.0561  49.3493 0005165 332.9498  27.1221 15.06400413 38121","ELEMENT_SET_NO":"999","PERIOD":"95.592","EPOCH":"2021-10-11T15:39:00.827424","ECCENTRICITY":"0.00051650","RA_OF_ASC_NODE":"49.3493","SITE":"AFETR","MEAN_MOTION":"15.06400413","LAUNCH_DATE":"2021-02-04","EPHEMERIS_TYPE":"0","BSTAR":"0.00001379800000","OBJECT_ID":"2021-009AP","CLASSIFICATION_TYPE":"U"}];
